{
  "type": "FeatureCollection",
  "features": [
    {
      "type": "Feature",
      "properties": {
        "norad_id": 66582,
        "name": "STARLINK-35746",
        "group": "last-30-days",
        "lat": 42.49583746929451,
        "lon": -111.27961282669676,
        "alt_km": 351.6304769108483,
        "timestamp": "2025-12-04T13:51:59.228070+00:00",
        "meta_object_name": "STARLINK-35746",
        "meta_object_id": "2025-268AB",
        "meta_epoch": "2025-12-04T08:00:01.999872",
        "meta_mean_motion": 15.71623296,
        "meta_eccentricity": 0.00014059,
        "meta_inclination": 42.999,
        "meta_ra_of_asc_node": 170.6961,
        "meta_arg_of_pericenter": 274.5943,
        "meta_mean_anomaly": 223.6156,
        "meta_ephemeris_type": 0,
        "meta_classification_type": "U",
        "meta_norad_cat_id": 66582,
        "meta_element_set_no": 999,
        "meta_rev_at_epoch": 331,
        "meta_bstar": -0.016405704,
        "meta_mean_motion_dot": -0.01928845,
        "meta_mean_motion_ddot": 0,
        "tle_line1": "1 66582U 25268AB  25338.33335648 -.01928845  00000+0 -16406-1 0  9992",
        "tle_line2": "2 66582  42.9990 170.6961 0001405 274.5943 223.6156 15.71623296  3310"
      },
      "geometry": {
        "type": "Point",
        "coordinates": [
          -111.27961282669676,
          42.49583746929451
        ]
      }
    },
    {
      "type": "Feature",
      "properties": {
        "norad_id": 66583,
        "name": "STARLINK-35941",
        "group": "last-30-days",
        "lat": 42.70520409229067,
        "lon": -108.6933557134632,
        "alt_km": 351.6605758238493,
        "timestamp": "2025-12-04T13:51:59.228081+00:00",
        "meta_object_name": "STARLINK-35941",
        "meta_object_id": "2025-268AC",
        "meta_epoch": "2025-12-04T08:00:01.999872",
        "meta_mean_motion": 15.71615342,
        "meta_eccentricity": 0.00014511,
        "meta_inclination": 42.9991,
        "meta_ra_of_asc_node": 170.6912,
        "meta_arg_of_pericenter": 270.479,
        "meta_mean_anomaly": 229.6535,
        "meta_ephemeris_type": 0,
        "meta_classification_type": "U",
        "meta_norad_cat_id": 66583,
        "meta_element_set_no": 999,
        "meta_rev_at_epoch": 331,
        "meta_bstar": -0.016324251,
        "meta_mean_motion_dot": -0.0191981,
        "meta_mean_motion_ddot": 0,
        "tle_line1": "1 66583U 25268AC  25338.33335648 -.01919810  00000+0 -16324-1 0  9994",
        "tle_line2": "2 66583  42.9991 170.6912 0001451 270.4790 229.6535 15.71615342  3314"
      },
      "geometry": {
        "type": "Point",
        "coordinates": [
          -108.6933557134632,
          42.70520409229067
        ]
      }
    },
    {
      "type": "Feature",
      "properties": {
        "norad_id": 66584,
        "name": "STARLINK-35939",
        "group": "last-30-days",
        "lat": 42.8557192366571,
        "lon": -106.09127188536482,
        "alt_km": 351.64802138411596,
        "timestamp": "2025-12-04T13:51:59.228093+00:00",
        "meta_object_name": "STARLINK-35939",
        "meta_object_id": "2025-268AD",
        "meta_epoch": "2025-12-04T08:00:01.999872",
        "meta_mean_motion": 15.71614674,
        "meta_eccentricity": 0.000145,
        "meta_inclination": 42.9991,
        "meta_ra_of_asc_node": 170.6869,
        "meta_arg_of_pericenter": 268.3987,
        "meta_mean_anomaly": 233.6519,
        "meta_ephemeris_type": 0,
        "meta_classification_type": "U",
        "meta_norad_cat_id": 66584,
        "meta_element_set_no": 999,
        "meta_rev_at_epoch": 331,
        "meta_bstar": -0.016324077,
        "meta_mean_motion_dot": -0.01919743,
        "meta_mean_motion_ddot": 0,
        "tle_line1": "1 66584U 25268AD  25338.33335648 -.01919743  00000+0 -16324-1 0  9990",
        "tle_line2": "2 66584  42.9991 170.6869 0001450 268.3987 233.6519 15.71614674  3313"
      },
      "geometry": {
        "type": "Point",
        "coordinates": [
          -106.09127188536482,
          42.8557192366571
        ]
      }
    },
    {
      "type": "Feature",
      "properties": {
        "norad_id": 66585,
        "name": "STARLINK-35963",
        "group": "last-30-days",
        "lat": 42.9468485767078,
        "lon": -103.47982608913789,
        "alt_km": 351.6376393976352,
        "timestamp": "2025-12-04T13:51:59.228105+00:00",
        "meta_object_name": "STARLINK-35963",
        "meta_object_id": "2025-268AE",
        "meta_epoch": "2025-12-04T08:00:01.999872",
        "meta_mean_motion": 15.71623467,
        "meta_eccentricity": 0.00014723,
        "meta_inclination": 42.9991,
        "meta_ra_of_asc_node": 170.6826,
        "meta_arg_of_pericenter": 271.9672,
        "meta_mean_anomaly": 231.9929,
        "meta_ephemeris_type": 0,
        "meta_classification_type": "U",
        "meta_norad_cat_id": 66585,
        "meta_element_set_no": 999,
        "meta_rev_at_epoch": 331,
        "meta_bstar": -0.016405769,
        "meta_mean_motion_dot": -0.01928915,
        "meta_mean_motion_ddot": 0,
        "tle_line1": "1 66585U 25268AE  25338.33335648 -.01928915  00000+0 -16406-1 0  9993",
        "tle_line2": "2 66585  42.9991 170.6826 0001472 271.9672 231.9929 15.71623467  3318"
      },
      "geometry": {
        "type": "Point",
        "coordinates": [
          -103.47982608913789,
          42.9468485767078
        ]
      }
    },
    {
      "type": "Feature",
      "properties": {
        "norad_id": 66586,
        "name": "TJS-21",
        "group": "last-30-days",
        "lat": 26.365462748659922,
        "lon": -164.50591839504642,
        "alt_km": 36995.737448126456,
        "timestamp": "2025-12-04T13:51:59.228118+00:00",
        "meta_object_name": "TJS-21",
        "meta_object_id": "2025-269A",
        "meta_epoch": "2025-11-22T00:38:56.616288",
        "meta_mean_motion": 2.0099221,
        "meta_eccentricity": 0.75179873,
        "meta_inclination": 51.0366,
        "meta_ra_of_asc_node": 174.7096,
        "meta_arg_of_pericenter": 225.0489,
        "meta_mean_anomaly": 41.6572,
        "meta_ephemeris_type": 0,
        "meta_classification_type": "U",
        "meta_norad_cat_id": 66586,
        "meta_element_set_no": 999,
        "meta_rev_at_epoch": 2,
        "meta_bstar": 0.00053569978,
        "meta_mean_motion_dot": 3.197e-05,
        "meta_mean_motion_ddot": 0,
        "tle_line1": "1 66586U 25269A   25326.02704417  .00003197  00000+0  53570-3 0  9990",
        "tle_line2": "2 66586  51.0366 174.7096 7517987 225.0489  41.6572  2.00992210    24"
      },
      "geometry": {
        "type": "Point",
        "coordinates": [
          -164.50591839504642,
          26.365462748659922
        ]
      }
    },
    {
      "type": "Feature",
      "properties": {
        "norad_id": 66587,
        "name": "CZ-3B R/B",
        "group": "last-30-days",
        "lat": 32.84522956271,
        "lon": -157.35912785834327,
        "alt_km": 39640.0486889365,
        "timestamp": "2025-12-04T13:51:59.228139+00:00",
        "meta_object_name": "CZ-3B R/B",
        "meta_object_id": "2025-269B",
        "meta_epoch": "2025-12-02T10:16:46.437600",
        "meta_mean_motion": 2.0223182,
        "meta_eccentricity": 0.75203475,
        "meta_inclination": 51.3575,
        "meta_ra_of_asc_node": 172.0321,
        "meta_arg_of_pericenter": 226.8728,
        "meta_mean_anomaly": 39.3228,
        "meta_ephemeris_type": 0,
        "meta_classification_type": "U",
        "meta_norad_cat_id": 66587,
        "meta_element_set_no": 999,
        "meta_rev_at_epoch": 24,
        "meta_bstar": 0.0019543247,
        "meta_mean_motion_dot": 0.00047329,
        "meta_mean_motion_ddot": -2.45602e-07,
        "tle_line1": "1 66587U 25269B   25336.42831525  .00047329 -24560-6  19543-2 0  9998",
        "tle_line2": "2 66587  51.3575 172.0321 7520347 226.8728  39.3228  2.02231820   242"
      },
      "geometry": {
        "type": "Point",
        "coordinates": [
          -157.35912785834327,
          32.84522956271
        ]
      }
    },
    {
      "type": "Feature",
      "properties": {
        "norad_id": 66588,
        "name": "STARLINK-36076",
        "group": "last-30-days",
        "lat": -13.091408846688259,
        "lon": 75.64048596024945,
        "alt_km": 343.586261155544,
        "timestamp": "2025-12-04T13:51:59.228152+00:00",
        "meta_object_name": "STARLINK-36076",
        "meta_object_id": "2025-270A",
        "meta_epoch": "2025-12-04T05:24:54.271296",
        "meta_mean_motion": 15.75272333,
        "meta_eccentricity": 0.00040333,
        "meta_inclination": 42.9979,
        "meta_ra_of_asc_node": 243.3253,
        "meta_arg_of_pericenter": 236.1411,
        "meta_mean_anomaly": 123.9075,
        "meta_ephemeris_type": 0,
        "meta_classification_type": "U",
        "meta_norad_cat_id": 66588,
        "meta_element_set_no": 999,
        "meta_rev_at_epoch": 301,
        "meta_bstar": -0.0018066684,
        "meta_mean_motion_dot": -0.00272201,
        "meta_mean_motion_ddot": 0,
        "tle_line1": "1 66588U 25270A   25338.22562814 -.00272201  00000+0 -18067-2 0  9999",
        "tle_line2": "2 66588  42.9979 243.3253 0004033 236.1411 123.9075 15.75272333  3014"
      },
      "geometry": {
        "type": "Point",
        "coordinates": [
          75.64048596024945,
          -13.091408846688259
        ]
      }
    }
  ]
}